{
  "norad_id": 66070,
  "name": "STARLINK-35295",
  "history": [
    {
      "epoch": "2026-03-28T14:36:02.824128Z",
      "apogee_km": 476.0534195679111,
      "perigee_km": 474.3661255925017,
      "latitude_deg": 5.129691797979538e-05,
      "longitude_deg": 112.66300229561976,
      "height_km": 475.92481028453983,
      "semi_major_axis_km": 6853.346772580207,
      "eccentricity": 0.0001231,
      "inclination_deg": 53.159,
      "raan_deg": 157.7011,
      "arg_perigee_deg": 77.4707,
      "mean_anomaly_deg": 282.6432,
      "mean_motion_rev_day": 15.30201774
    },
    {
      "epoch": "2026-03-29T09:24:41.115456Z",
      "apogee_km": 475.86203332259083,
      "perigee_km": 474.4662900080066,
      "latitude_deg": -5.3493983757036334e-05,
      "longitude_deg": -173.90984832350875,
      "height_km": 476.1422259352766,
      "semi_major_axis_km": 6853.301161665298,
      "eccentricity": 0.00010183,
      "inclination_deg": 53.1593,
      "raan_deg": 154.0604,
      "arg_perigee_deg": 96.5579,
      "mean_anomaly_deg": 263.5537,
      "mean_motion_rev_day": 15.3021705
    },
    {
      "epoch": "2026-03-30T13:37:39.099360Z",
      "apogee_km": 476.1041856852926,
      "perigee_km": 474.3406792361329,
      "latitude_deg": -9.945117203950637e-06,
      "longitude_deg": 116.22929116447715,
      "height_km": 476.105852647552,
      "semi_major_axis_km": 6853.359432460713,
      "eccentricity": 0.00012866,
      "inclination_deg": 53.1596,
      "raan_deg": 148.5999,
      "arg_perigee_deg": 89.0519,
      "mean_anomaly_deg": 271.0629,
      "mean_motion_rev_day": 15.30197534
    },
    {
      "epoch": "2026-03-31T20:58:43.306176Z",
      "apogee_km": 476.312585095583,
      "perigee_km": 474.10854851809836,
      "latitude_deg": 3.5720917300876144e-05,
      "longitude_deg": -1.3945482272364937,
      "height_km": 476.0350465210886,
      "semi_major_axis_km": 6853.34756680684,
      "eccentricity": 0.0001608,
      "inclination_deg": 53.1598,
      "raan_deg": 142.5311,
      "arg_perigee_deg": 86.1964,
      "mean_anomaly_deg": 273.9221,
      "mean_motion_rev_day": 15.30201508
    },
    {
      "epoch": "2026-04-01T20:29:30.334848Z",
      "apogee_km": 475.42452626825343,
      "perigee_km": 474.8680396656773,
      "latitude_deg": -3.0239609186728748e-05,
      "longitude_deg": 0.39360385321720043,
      "height_km": 475.9623133750983,
      "semi_major_axis_km": 6853.283282966965,
      "eccentricity": 4.06e-05,
      "inclination_deg": 53.1606,
      "raan_deg": 137.9809,
      "arg_perigee_deg": 287.6161,
      "mean_anomaly_deg": 72.4795,
      "mean_motion_rev_day": 15.30223038
    },
    {
      "epoch": "2026-04-02T20:00:18.160128Z",
      "apogee_km": 475.9918383517079,
      "perigee_km": 474.25111069917784,
      "latitude_deg": 1.7583048014823377e-05,
      "longitude_deg": 2.17781195167243,
      "height_km": 475.86112796639577,
      "semi_major_axis_km": 6853.258474525443,
      "eccentricity": 0.000127,
      "inclination_deg": 53.159,
      "raan_deg": 133.43,
      "arg_perigee_deg": 79.5171,
      "mean_anomaly_deg": 280.5973,
      "mean_motion_rev_day": 15.30231347
    },
    {
      "epoch": "2026-04-02T20:00:18.160992Z",
      "apogee_km": 475.99204394946173,
      "perigee_km": 474.250905101424,
      "latitude_deg": 1.4847441029936353e-05,
      "longitude_deg": 2.177806303615005,
      "height_km": 475.86109056219726,
      "semi_major_axis_km": 6853.258474525443,
      "eccentricity": 0.00012703,
      "inclination_deg": 53.159,
      "raan_deg": 133.43,
      "arg_perigee_deg": 79.5171,
      "mean_anomaly_deg": 280.5973,
      "mean_motion_rev_day": 15.30231347
    }
  ]
}